[
    {
        "Altitude(m)": 617710.6967155372,
        "Argument of Periapsis(deg)": 0.0,
        "Eccentricity": 0.0,
        "Inclination(deg)": 60.0,
        "Latitude(deg)": -41.102814600085544,
        "Longitude(deg)": -45.03328268428717,
        "Mean Anomaly(deg)": -49.09089999999994,
        "RAAN(deg)": 85.00000000000001,
        "Satellite Name": "Test1 393",
        "Satellite Number": 393,
        "Semi-Major Axis(m)": 6980739.136638005,
        "Time(s)": 0
    },
    {
        "Altitude(m)": 617517.9947485193,
        "Argument of Periapsis(deg)": 0.00010418945913296404,
        "Eccentricity": 0.0,
        "Inclination(deg)": 60.0,
        "Latitude(deg)": -40.63702069023,
        "Longitude(deg)": -44.536489361658724,
        "Mean Anomaly(deg)": -48.47079385453811,
        "RAAN(deg)": 84.99957995086027,
        "Satellite Name": "Test1 393",
        "Satellite Number": 393,
        "Semi-Major Axis(m)": 6980739.136638005,
        "Time(s)": 10
    }
]